*******************************************************************************
Ephemeris / WWW_USER Mon Mar 24 10:37:09 2025 Pasadena, USA      / Horizons    
*******************************************************************************
Target body name: 358P/PANSTARRS                  {source: JPL#33}
Center body name: Earth (399)                     {source: DE441}
Center-site name: Mauna Kea
*******************************************************************************
Start time      : A.D. 2018-Aug-02 05:08:00.0000 UT      
Stop  time      : A.D. 2018-Aug-02 15:48:00.0000 UT      
Step-size       : 1 minutes
*******************************************************************************
Target pole/equ : undefined
Target radii    : undefined                                                    
Center geodetic : 204.5278, 19.8260847, 4.21024   {E-lon(deg),Lat(deg),Alt(km)}
Center cylindric: 204.5278, 6006.35451, 2151.0229 {E-lon(deg),Dxy(km),Dz(km)}
Center pole/equ : ITRF93                          {East-longitude positive}
Center radii    : 6378.137, 6378.137, 6356.752 km {Equator_a, b, pole_c}       
Target primary  : Sun
Vis. interferer : MOON (R_eq= 1737.400) km        {source: DE441}
Rel. light bend : Sun                             {source: DE441}
Rel. lght bnd GM: 1.3271E+11 km^3/s^2                                          
Small-body perts: Yes                             {source: SB441-N16}
Atmos refraction: NO (AIRLESS)
RA format       : HMS
Time format     : CAL 
Calendar mode   : Mixed Julian/Gregorian
RTS-only print  : NO       
EOP file        : eop.250321.p250617                                           
EOP coverage    : DATA-BASED 1962-JAN-20 TO 2025-MAR-21. PREDICTS-> 2025-JUN-16
Units conversion: 1 au= 149597870.700 km, c= 299792.458 km/s, 1 day= 86400.0 s 
Table cut-offs 1: Elevation (-90.0deg=NO ),Airmass (>38.000=NO), Daylight (YES)
Table cut-offs 2: Solar elongation (  0.0,180.0=NO ),Local Hour Angle( 0.0=NO )
Table cut-offs 3: RA/DEC angular rate (     0.0=NO )                           
*******************************************************************************
Initial IAU76/J2000 heliocentric ecliptic osculating elements (au, days, deg.):
  EPOCH=  2459793.5 ! 2022-Aug-02.0000000 (TDB)    RMSW= n.a.                  
   EC= .2388922136090974   QR= 2.394903345037887   TP= 2460259.6862889272      
   OM= 85.70246509974154   W= 299.7728624007243    IN= 11.06025031481611       
  Equivalent ICRF heliocentric cartesian coordinates (au, au/d):
   X= 3.243054425204740E-01  Y=-2.897679241187805E+00  Z=-1.376383147061824E+00
  VX= 8.746409534656921E-03 VY= 3.598394346577952E-03 VZ=-2.469697424538527E-04
Comet physical (GM= km^3/s^2; RAD= km):                                        
   GM= n.a.                RAD= n.a.                                           
   M1=  7.8      M2=  17.2     k1=  30.    k2=  5.      PHCOF=  .030           
Comet non-gravitational force model (AMRAT=m^2/kg;A1-A3=au/d^2;DT=days;R0=au): 
   AMRAT=  0.                                      DT=  0.                     
   A1= 0.                  A2= -2.303385920823E-10 A3= 0.                      
 Standard model:                                                               
   ALN=  .1112620426   NK=  4.6142   NM=  2.15     NN=  5.093    R0=  2.808    
*******************************************************************************
 Date__(UT)__HR:MN     R.A._________(ICRF)_________DEC
******************************************************
$$SOE
 2018-Aug-02 05:08 C   05 07 18.670035 +18 36 28.62788
 2018-Aug-02 05:09 C   05 07 18.741487 +18 36 28.78125
 2018-Aug-02 05:10 C   05 07 18.812941 +18 36 28.93464
 2018-Aug-02 05:11 C   05 07 18.884395 +18 36 29.08804
 2018-Aug-02 05:12 C   05 07 18.955852 +18 36 29.24145
 2018-Aug-02 05:13 C   05 07 19.027309 +18 36 29.39488
 2018-Aug-02 05:14 C   05 07 19.098768 +18 36 29.54831
 2018-Aug-02 05:15 C   05 07 19.170228 +18 36 29.70177
 2018-Aug-02 05:16 C   05 07 19.241690 +18 36 29.85523
 2018-Aug-02 05:17 C   05 07 19.313152 +18 36 30.00871
 2018-Aug-02 05:18 C   05 07 19.384616 +18 36 30.16221
 2018-Aug-02 05:19 C   05 07 19.456082 +18 36 30.31572
 2018-Aug-02 05:20 C   05 07 19.527548 +18 36 30.46924
 2018-Aug-02 05:21 C   05 07 19.599016 +18 36 30.62277
 2018-Aug-02 05:22 N   05 07 19.670485 +18 36 30.77632
 2018-Aug-02 05:23 N   05 07 19.741955 +18 36 30.92988
 2018-Aug-02 05:24 N   05 07 19.813426 +18 36 31.08346
 2018-Aug-02 05:25 N   05 07 19.884899 +18 36 31.23705
 2018-Aug-02 05:26 N   05 07 19.956372 +18 36 31.39066
 2018-Aug-02 05:27 N   05 07 20.027847 +18 36 31.54427
 2018-Aug-02 05:28 N   05 07 20.099323 +18 36 31.69791
 2018-Aug-02 05:29 N   05 07 20.170800 +18 36 31.85155
 2018-Aug-02 05:30 N   05 07 20.242278 +18 36 32.00521
 2018-Aug-02 05:31 N   05 07 20.313757 +18 36 32.15889
 2018-Aug-02 05:32 N   05 07 20.385237 +18 36 32.31258
 2018-Aug-02 05:33 N   05 07 20.456718 +18 36 32.46628
 2018-Aug-02 05:34 N   05 07 20.528200 +18 36 32.62000
 2018-Aug-02 05:35 N   05 07 20.599683 +18 36 32.77373
 2018-Aug-02 05:36 N   05 07 20.671168 +18 36 32.92747
 2018-Aug-02 05:37 N   05 07 20.742653 +18 36 33.08123
 2018-Aug-02 05:38 N   05 07 20.814139 +18 36 33.23500
 2018-Aug-02 05:39 N   05 07 20.885626 +18 36 33.38879
 2018-Aug-02 05:40 N   05 07 20.957114 +18 36 33.54259
 2018-Aug-02 05:41 N   05 07 21.028603 +18 36 33.69641
 2018-Aug-02 05:42 N   05 07 21.100092 +18 36 33.85024
 2018-Aug-02 05:43 N   05 07 21.171583 +18 36 34.00408
 2018-Aug-02 05:44 N   05 07 21.243075 +18 36 34.15794
 2018-Aug-02 05:45 N   05 07 21.314567 +18 36 34.31181
 2018-Aug-02 05:46 N   05 07 21.386060 +18 36 34.46570
 2018-Aug-02 05:47 N   05 07 21.457554 +18 36 34.61960
 2018-Aug-02 05:48 N   05 07 21.529049 +18 36 34.77352
 2018-Aug-02 05:49 N   05 07 21.600544 +18 36 34.92745
 2018-Aug-02 05:50 A   05 07 21.672041 +18 36 35.08140
 2018-Aug-02 05:51 A   05 07 21.743538 +18 36 35.23536
 2018-Aug-02 05:52 A   05 07 21.815036 +18 36 35.38933
 2018-Aug-02 05:53 A   05 07 21.886534 +18 36 35.54332
 2018-Aug-02 05:54 A   05 07 21.958034 +18 36 35.69732
 2018-Aug-02 05:55 A   05 07 22.029533 +18 36 35.85134
 2018-Aug-02 05:56 A   05 07 22.101034 +18 36 36.00537
 2018-Aug-02 05:57 A   05 07 22.172535 +18 36 36.15942
 2018-Aug-02 05:58 A   05 07 22.244037 +18 36 36.31348
 2018-Aug-02 05:59 A   05 07 22.315540 +18 36 36.46755
 2018-Aug-02 06:00 A   05 07 22.387043 +18 36 36.62165
 2018-Aug-02 06:01 A   05 07 22.458547 +18 36 36.77575
 2018-Aug-02 06:02 A   05 07 22.530051 +18 36 36.92987
 2018-Aug-02 06:03 A   05 07 22.601556 +18 36 37.08400
 2018-Aug-02 06:04 A   05 07 22.673061 +18 36 37.23815
 2018-Aug-02 06:05 A   05 07 22.744567 +18 36 37.39232
 2018-Aug-02 06:06 A   05 07 22.816074 +18 36 37.54650
 2018-Aug-02 06:07 A   05 07 22.887580 +18 36 37.70069
 2018-Aug-02 06:08 A   05 07 22.959088 +18 36 37.85490
 2018-Aug-02 06:09 A   05 07 23.030596 +18 36 38.00912
 2018-Aug-02 06:10 A   05 07 23.102104 +18 36 38.16336
 2018-Aug-02 06:11 A   05 07 23.173613 +18 36 38.31761
 2018-Aug-02 06:12 A   05 07 23.245122 +18 36 38.47187
 2018-Aug-02 06:13 A   05 07 23.316632 +18 36 38.62616
 2018-Aug-02 06:14 A   05 07 23.388142 +18 36 38.78045
 2018-Aug-02 06:15 A   05 07 23.459652 +18 36 38.93476
 2018-Aug-02 06:16 A   05 07 23.531163 +18 36 39.08909
 2018-Aug-02 06:17 A   05 07 23.602674 +18 36 39.24343
 2018-Aug-02 06:18     05 07 23.674185 +18 36 39.39779
 2018-Aug-02 06:19     05 07 23.745696 +18 36 39.55216
 2018-Aug-02 06:20     05 07 23.817208 +18 36 39.70654
 2018-Aug-02 06:21     05 07 23.888720 +18 36 39.86094
 2018-Aug-02 06:22     05 07 23.960233 +18 36 40.01536
 2018-Aug-02 06:23     05 07 24.031746 +18 36 40.16979
 2018-Aug-02 06:24     05 07 24.103258 +18 36 40.32423
 2018-Aug-02 06:25     05 07 24.174771 +18 36 40.47869
 2018-Aug-02 06:26     05 07 24.246285 +18 36 40.63317
 2018-Aug-02 06:27     05 07 24.317798 +18 36 40.78766
 2018-Aug-02 06:28     05 07 24.389312 +18 36 40.94216
 2018-Aug-02 06:29     05 07 24.460825 +18 36 41.09668
 2018-Aug-02 06:30     05 07 24.532339 +18 36 41.25121
 2018-Aug-02 06:31     05 07 24.603853 +18 36 41.40576
 2018-Aug-02 06:32     05 07 24.675367 +18 36 41.56033
 2018-Aug-02 06:33     05 07 24.746881 +18 36 41.71491
 2018-Aug-02 06:34     05 07 24.818396 +18 36 41.86950
 2018-Aug-02 06:35     05 07 24.889910 +18 36 42.02411
 2018-Aug-02 06:36     05 07 24.961424 +18 36 42.17873
 2018-Aug-02 06:37     05 07 25.032938 +18 36 42.33337
 2018-Aug-02 06:38     05 07 25.104452 +18 36 42.48802
 2018-Aug-02 06:39     05 07 25.175967 +18 36 42.64269
 2018-Aug-02 06:40     05 07 25.247481 +18 36 42.79738
 2018-Aug-02 06:41     05 07 25.318995 +18 36 42.95208
 2018-Aug-02 06:42     05 07 25.390509 +18 36 43.10679
 2018-Aug-02 06:43     05 07 25.462023 +18 36 43.26152
 2018-Aug-02 06:44     05 07 25.533537 +18 36 43.41626
 2018-Aug-02 06:45     05 07 25.605050 +18 36 43.57102
 2018-Aug-02 06:46     05 07 25.676564 +18 36 43.72579
 2018-Aug-02 06:47     05 07 25.748077 +18 36 43.88058
 2018-Aug-02 06:48     05 07 25.819590 +18 36 44.03539
 2018-Aug-02 06:49     05 07 25.891103 +18 36 44.19020
 2018-Aug-02 06:50     05 07 25.962616 +18 36 44.34504
 2018-Aug-02 06:51     05 07 26.034129 +18 36 44.49989
 2018-Aug-02 06:52     05 07 26.105641 +18 36 44.65475
 2018-Aug-02 06:53     05 07 26.177153 +18 36 44.80963
 2018-Aug-02 06:54     05 07 26.248665 +18 36 44.96452
 2018-Aug-02 06:55     05 07 26.320177 +18 36 45.11943
 2018-Aug-02 06:56     05 07 26.391688 +18 36 45.27435
 2018-Aug-02 06:57     05 07 26.463199 +18 36 45.42929
 2018-Aug-02 06:58     05 07 26.534709 +18 36 45.58424
 2018-Aug-02 06:59     05 07 26.606220 +18 36 45.73921
 2018-Aug-02 07:00     05 07 26.677729 +18 36 45.89419
 2018-Aug-02 07:01     05 07 26.749239 +18 36 46.04919
 2018-Aug-02 07:02     05 07 26.820748 +18 36 46.20420
 2018-Aug-02 07:03     05 07 26.892257 +18 36 46.35923
 2018-Aug-02 07:04     05 07 26.963765 +18 36 46.51427
